[{"OBJECT_NAME":"STARLINK-34576","OBJECT_ID":"2025-142F","EPOCH":"2026-03-09T21:21:00.309024","MEAN_MOTION":14.98370737,"ECCENTRICITY":0.00028434,"INCLINATION":70.0018,"RA_OF_ASC_NODE":313.8048,"ARG_OF_PERICENTER":267.5602,"MEAN_ANOMALY":92.5232,"EPHEMERIS_TYPE":0,"CLASSIFICATION_TYPE":"U","NORAD_CAT_ID":64701,"ELEMENT_SET_NO":999,"REV_AT_EPOCH":3950,"BSTAR":0.002065412,"MEAN_MOTION_DOT":0.00024664,"MEAN_MOTION_DDOT":0},{"OBJECT_NAME":"CZ-6A DEB","OBJECT_ID":"2024-140YA","EPOCH":"2026-03-09T14:26:17.481408","MEAN_MOTION":14.80843651,"ECCENTRICITY":0.009905,"INCLINATION":89.0273,"RA_OF_ASC_NODE":282.6505,"ARG_OF_PERICENTER":174.5462,"MEAN_ANOMALY":185.6867,"EPHEMERIS_TYPE":0,"CLASSIFICATION_TYPE":"U","NORAD_CAT_ID":61409,"ELEMENT_SET_NO":999,"REV_AT_EPOCH":8023,"BSTAR":0.0018081,"MEAN_MOTION_DOT":0.00015217,"MEAN_MOTION_DDOT":0}]
